NORAD_CAT_ID,OBJECT_NAME,OBJECT_TYPE,EPOCH,MEAN_MOTION,ECCENTRICITY,INCLINATION,RA_OF_ASC_NODE,ARG_OF_PERICENTER,MEAN_ANOMALY,BSTAR,MEAN_MOTION_DOT,MEAN_MOTION_DDOT,TLE_LINE0,TLE_LINE1,TLE_LINE2,SEMIMAJOR_AXIS,PERIOD,APOGEE,PERIGEE,DECAYED
52451.0,STARLINK-3870,PAYLOAD,2024-06-14 22:05:33,15.08839449,0.0001374,53.2187,29.7379,108.5463,251.5678,0.00010647,1.407e-05,0.0,0 STARLINK-3870,1 52451U 22049A   24166.92052667  .00001407  00000-0  10647-3 0  9993,2 52451  53.2187  29.7379 0001374 108.5463 251.5678 15.08839449116580,6917.882,95.438,540.698,538.797,0.0
52451.0,STARLINK-3870,PAYLOAD,2024-06-15 07:37:52,15.08844022,0.0001416,53.2196,27.9524,80.7747,279.3405,6.4578e-05,7.4e-06,0.0,0 STARLINK-3870,1 52451U 22049A   24167.31796542  .00000740  00000-0  64578-4 0  9996,2 52451  53.2196  27.9524 0001416  80.7747 279.3405 15.08844022116641,6917.868,95.437,540.713,538.754,0.0
52451.0,STARLINK-3870,PAYLOAD,2024-06-15 21:56:20,15.08843763,0.0001433,53.2196,25.2768,95.5404,264.5752,4.7062e-05,4.61e-06,0.0,0 STARLINK-3870,1 52451U 22049A   24167.91412713  .00000461  00000-0  47062-4 0  9996,2 52451  53.2196  25.2768 0001433  95.5404 264.5752 15.08843763116737,6917.869,95.437,540.725,538.743,0.0
52451.0,STARLINK-3870,PAYLOAD,2024-06-16 07:28:39,15.08848274,0.0001588,53.2201,23.4902,83.9483,276.1691,7.8517e-06,-1.63e-06,0.0,0 STARLINK-3870,1 52451U 22049A   24168.31156457 -.00000163  00000-0  78517-5 0  9991,2 52451  53.2201  23.4902 0001588  83.9483 276.1691 15.08848274116792,6917.855,95.437,540.819,538.622,0.0
52451.0,STARLINK-3870,PAYLOAD,2024-06-16 21:47:07,15.08842183,0.00014,53.2196,20.8121,87.3077,272.8075,4.6003e-05,4.44e-06,0.0,0 STARLINK-3870,1 52451U 22049A   24168.90772789  .00000444  00000-0  46003-4 0  9993,2 52451  53.2196  20.8121 0001400  87.3077 272.8075 15.08842183116881,6917.874,95.437,540.707,538.77,0.0
52451.0,STARLINK-3870,PAYLOAD,2024-06-17 21:37:54,15.08843436,0.0001203,53.2178,16.3552,92.0195,268.0935,2.5956e-05,1.25e-06,0.0,0 STARLINK-3870,1 52451U 22049A   24169.90132692  .00000125  00000-0  25956-4 0  9997,2 52451  53.2178  16.3552 0001203  92.0195 268.0935 15.08843436117193,6917.87,95.437,540.567,538.903,0.0
52451.0,STARLINK-3870,PAYLOAD,2024-06-18 07:10:13,15.08844191,0.000123,53.2183,14.5676,95.3192,264.794,5.0172e-05,5.11e-06,0.0,0 STARLINK-3870,1 52451U 22049A   24170.29876442  .00000511  00000-0  50172-4 0  9996,2 52451  53.2183  14.5676 0001230  95.3192 264.7940 15.08844191117096,6917.868,95.437,540.583,538.882,0.0
52451.0,STARLINK-3870,PAYLOAD,2024-06-18 19:53:18,15.08829247,0.0001172,53.2181,12.1884,94.7128,265.3998,0.00029583,4.422e-05,0.0,0 STARLINK-3870,1 52451U 22049A   24170.82868824  .00004422  00000-0  29583-3 0  9996,2 52451  53.2181  12.1884 0001172  94.7128 265.3998 15.08829247117338,6917.913,95.438,540.589,538.967,0.0
52451.0,STARLINK-3870,PAYLOAD,2024-06-18 23:04:04,15.0885039,0.00012,53.2179,11.5931,104.1703,255.9422,8.8175e-05,1.116e-05,0.0,0 STARLINK-3870,1 52451U 22049A   24170.96115748  .00001116  00000-0  88175-4 0  9991,2 52451  53.2179  11.5931 0001200 104.1703 255.9422 15.08850390117350,6917.849,95.437,540.544,538.883,0.0
52451.0,STARLINK-3870,PAYLOAD,2024-06-19 19:44:05,15.0883701,0.0001371,53.2188,7.7243,107.1482,252.9661,-4.2225e-05,-9.6e-06,0.0,0 STARLINK-3870,1 52451U 22049A   24171.82228996 -.00000960  00000-0 -42225-4 0  9991,2 52451  53.2188   7.7243 0001371 107.1482 252.9661 15.08837010117489,6917.89,95.438,540.703,538.806,0.0
52451.0,STARLINK-3870,PAYLOAD,2024-06-20 13:13:20,15.08835727,0.0001541,53.219,4.4532,108.6704,251.4455,-5.5535e-05,-1.172e-05,0.0,0 STARLINK-3870,1 52451U 22049A   24172.55093347 -.00001172  00000-0 -55535-4 0  9996,2 52451  53.2190   4.4532 0001541 108.6704 251.4455 15.08835727117432,6917.893,95.438,540.824,538.692,0.0
52451.0,STARLINK-3870,PAYLOAD,2024-06-20 19:34:53,15.08839739,0.0001283,53.2185,3.2656,97.382,262.7318,-9.2727e-05,-1.763e-05,0.0,0 STARLINK-3870,1 52451U 22049A   24172.81589334 -.00001763  00000-0 -92727-4 0  9991,2 52451  53.2185   3.2656 0001283  97.3820 262.7318 15.08839739117470,6917.881,95.438,540.634,538.859,0.0
52451.0,STARLINK-3870,PAYLOAD,2024-06-21 13:04:08,15.08830202,0.0001159,53.2176,359.9954,83.1066,277.0058,2.3085e-05,8e-07,0.0,0 STARLINK-3870,1 52451U 22049A   24173.54453923  .00000080  00000-0  23085-4 0  9996,2 52451  53.2176 359.9954 0001159  83.1066 277.0058 15.08830202117745,6917.91,95.438,540.577,538.974,0.0
52451.0,STARLINK-3870,PAYLOAD,2024-06-21 17:50:17,15.08831796,0.0001143,53.2177,359.1035,82.7661,277.3461,3.1786e-05,2.18e-06,0.0,0 STARLINK-3870,1 52451U 22049A   24173.74325904  .00000218  00000-0  31786-4 0  9995,2 52451  53.2177 359.1035 0001143  82.7661 277.3461 15.08831796117613,6917.905,95.438,540.561,538.98,0.0
52451.0,STARLINK-3870,PAYLOAD,2024-06-22 20:51:50,15.08844511,0.0001115,53.2183,354.0508,85.3115,274.8005,0.00013503,1.862e-05,0.0,0 STARLINK-3870,1 52451U 22049A   24174.86933130  .00001862  00000-0  13503-3 0  9997,2 52451  53.2183 354.0508 0001115  85.3115 274.8005 15.08844511117942,6917.867,95.437,540.503,538.96,0.0
52451.0,STARLINK-3870,PAYLOAD,2024-06-23 11:10:18,15.08840772,0.0001531,53.2194,351.3777,96.4966,263.62,7.963e-05,9.8e-06,0.0,0 STARLINK-3870,1 52451U 22049A   24175.46549662  .00000980  00000-0  79630-4 0  9991,2 52451  53.2194 351.3777 0001531  96.4966 263.6200 15.08840772118030,6917.878,95.438,540.802,538.684,0.0
52451.0,STARLINK-3870,PAYLOAD,2024-06-23 19:07:15,15.08832513,0.0001084,53.2189,349.8887,138.4458,221.6617,-3.1827e-06,-3.38e-06,0.0,0 STARLINK-3870,1 52451U 22049A   24175.79670241 -.00000338  00000-0 -31827-5 0  9991,2 52451  53.2189 349.8887 0001084 138.4458 221.6617 15.08832513118089,6917.903,95.438,540.518,539.018,0.0
52451.0,STARLINK-3870,PAYLOAD,2024-06-24 18:58:01,15.0885001,0.0001434,53.2196,345.426,57.0002,303.1128,2.789e-05,1.56e-06,0.0,0 STARLINK-3870,1 52451U 22049A   24176.79029511  .00000156  00000-0  27890-4 0  9990,2 52451  53.2196 345.4260 0001434  57.0002 303.1128 15.08850010118236,6917.85,95.437,540.707,538.723,0.0
52451.0,STARLINK-3870,PAYLOAD,2024-06-25 18:48:47,15.08844594,7.25e-05,53.2182,340.969,83.0939,277.0136,0.00014645,2.044e-05,0.0,0 STARLINK-3870,1 52451U 22049A   24177.78388867  .00002044  00000-0  14645-3 0  9993,2 52451  53.2182 340.9690 0000725  83.0939 277.0136 15.08844594118225,6917.866,95.437,540.233,539.23,0.0
52451.0,STARLINK-3870,PAYLOAD,2024-06-27 16:54:59,15.08843367,9.34e-05,53.2182,332.3431,91.4725,268.6374,-9.7622e-06,-4.43e-06,0.0,0 STARLINK-3870,1 52451U 22049A   24179.70485221 -.00000443  00000-0 -97622-5 0  9990,2 52451  53.2182 332.3431 0000934  91.4725 268.6374 15.08843367118677,6917.87,95.437,540.381,539.089,0.0
52451.0,STARLINK-3870,PAYLOAD,2024-06-28 13:35:00,15.08833823,9.04e-05,53.218,328.4765,89.2155,270.894,2.9388e-05,1.8e-06,0.0,0 STARLINK-3870,1 52451U 22049A   24180.56597742  .00000180  00000-0  29388-4 0  9997,2 52451  53.2180 328.4765 0000904  89.2155 270.8940 15.08833823118805,6917.899,95.438,540.39,539.139,0.0
52451.0,STARLINK-3870,PAYLOAD,2024-06-28 15:10:23,15.088379,9.19e-05,53.2182,328.181,88.7522,271.3575,4.5775e-05,4.41e-06,0.0,0 STARLINK-3870,1 52451U 22049A   24180.63221556  .00000441  00000-0  45775-4 0  9990,2 52451  53.2182 328.1810 0000919  88.7522 271.3575 15.08837900118656,6917.887,95.438,540.388,539.116,0.0
52451.0,STARLINK-3870,PAYLOAD,2024-06-29 02:18:04,15.0884592,9.74e-05,53.2188,326.1026,84.4542,275.6561,0.00010352,1.36e-05,0.0,0 STARLINK-3870,1 52451U 22049A   24181.09588901  .00001360  00000-0  10352-3 0  9994,2 52451  53.2188 326.1026 0000974  84.4542 275.6561 15.08845920118883,6917.862,95.437,540.401,539.053,0.0
52451.0,STARLINK-3870,PAYLOAD,2024-06-29 13:25:47,15.08831236,9.98e-05,53.2184,324.0179,61.9116,298.1977,-4.4597e-06,-3.59e-06,0.0,0 STARLINK-3870,1 52451U 22049A   24181.55958225 -.00000359  00000-0 -44597-5 0  9994,2 52451  53.2184 324.0179 0000998  61.9116 298.1977 15.08831236118952,6917.907,95.438,540.463,539.082,0.0
52451.0,STARLINK-3870,PAYLOAD,2024-06-29 16:36:33,15.08838462,0.0001024,53.2189,323.4285,99.5518,260.559,3.5431e-05,2.76e-06,0.0,0 STARLINK-3870,1 52451U 22049A   24181.69205699  .00000276  00000-0  35431-4 0  9991,2 52451  53.2189 323.4285 0001024  99.5518 260.5590 15.08838462118976,6917.885,95.438,540.458,539.042,0.0
52451.0,STARLINK-3870,PAYLOAD,2024-06-30 13:16:35,15.08836076,8.55e-05,53.2175,319.561,89.7775,270.3315,-7.5443e-05,-1.488e-05,0.0,0 STARLINK-3870,1 52451U 22049A   24182.55318624 -.00001488  00000-0 -75443-4 0  9995,2 52451  53.2175 319.5610 0000855  89.7775 270.3315 15.08836076119105,6917.892,95.438,540.349,539.166,0.0
52451.0,STARLINK-3870,PAYLOAD,2024-06-30 14:51:58,15.08836734,8.81e-05,53.2166,319.2644,87.6272,272.4821,-4.3829e-05,-9.85e-06,0.0,0 STARLINK-3870,1 52451U 22049A   24182.61942493 -.00000985  00000-0 -43829-4 0  9993,2 52451  53.2166 319.2644 0000881  87.6272 272.4821 15.08836734118955,6917.89,95.438,540.365,539.146,0.0
52451.0,STARLINK-3870,PAYLOAD,2024-06-30 16:27:21,15.08836969,8.75e-05,53.2166,318.9669,88.6897,271.4195,-4.1769e-05,-9.52e-06,0.0,0 STARLINK-3870,1 52451U 22049A   24182.68566467 -.00000952  00000-0 -41769-4 0  9998,2 52451  53.2166 318.9669 0000875  88.6897 271.4195 15.08836969118969,6917.89,95.438,540.36,539.149,0.0
52451.0,STARLINK-3870,PAYLOAD,2024-07-01 01:59:39,15.08841927,0.0001074,53.2181,317.1821,82.9719,277.1395,1.9359e-05,2e-07,0.0,0 STARLINK-3870,1 52451U 22049A   24183.08310041  .00000020  00000-0  19359-4 0  9992,2 52451  53.2181 317.1821 0001074  82.9719 277.1395 15.08841927119189,6917.874,95.437,540.482,538.997,0.0
52451.0,STARLINK-3870,PAYLOAD,2024-07-01 14:42:44,15.08842824,0.0001037,53.218,314.7991,69.8616,290.2488,0.00011639,1.565e-05,0.0,0 STARLINK-3870,1 52451U 22049A   24183.61301754  .00001565  00000-0  11639-3 0  9999,2 52451  53.2180 314.7991 0001037  69.8616 290.2488 15.08842824119106,6917.872,95.437,540.454,539.019,0.0
